ONEWEB-0588             
1 55153U 23004P   24118.56577590  .00000118  00000+0  26775-3 0  9997
2 55153  87.9125 130.9010 0002599  85.4614 274.6815 13.18687258 66813
ONEWEB-0598             
1 55154U 23004Q   24118.56703583 -.00000474  00000+0 -13734-2 0  9998
2 55154  87.9006 176.3686 0002763 109.1375 251.0052 13.11416219 63589
ONEWEB-0599             
1 55155U 23004R   24118.55283765  .00000050  00000+0  94375-4 0  9993
2 55155  87.9201 161.2036 0002126 101.2303 258.9068 13.17650801 64684
ONEWEB-0614             
1 55156U 23004S   24118.56215530 -.00000268  00000+0 -79270-3 0  9999
2 55156  87.9007 176.3727 0002035  87.6507 272.4854 13.11413172 63523
ONEWEB-0616             
1 55157U 23004T   24118.59555353  .00000086  00000+0  18809-3 0  9990
2 55157  87.9198 161.2059 0001522 132.3285 227.7975 13.17651851 64901
ONEWEB-0617             
1 55158U 23004U   24118.55080933  .00000204  00000+0  53942-3 0  9993
2 55158  87.9003 176.3723 0002373  88.8730 271.2670 13.11414263 63551
ONEWEB-0618             
1 55159U 23004V   24118.47511047  .00000644  00000+0  25788-3 0  9995
2 55159  86.9024 111.3261 0015740  88.9709 271.3287 14.26803992 68119
ONEWEB-0619             
1 55160U 23004W   24118.55126333  .00000068  00000+0  14292-3 0  9994
2 55160  87.9199 161.1909 0001491  96.8972 263.2330 13.17647844 64795
